[
    {
        "name": "DREAM AFRO SHOP MANNHEIM",
        "city": "Mannheim",
        "zipCode": "68169",
        "coords": "{lat: 49.4975732, lng: 8.4711448}",
        "infos": "`DREAM AFRO SHOP MANNHEIM, Mittelstraße 13, 68169 Mannheim <br> Phone: 01521 4291789`"
    },
    {
        "name": "Afro Shop Mannheim Style by Jimmy Beauty & Barber Shop",
        "city": "Mannheim",
        "zipCode": "68161",
        "coords": "{lat: 49.4827566, lng: 8.4731227}",
        "infos": "`Afro Shop Mannheim Style by Jimmy Beauty & Barber Shop, <br> Kaiserring, 68161 Mannheim <br> Phone: 0176 43657296`"
    },
    {
        "name": "Orange Friseuren Extension Make-up & Beautyshop",
        "city": "Mannheim",
        "zipCode": "68161",
        "coords": "{lat: , lng: }",
        "infos": "`Orange Friseuren Extension Make-up & Beautyshop, <br> S2 11, 68161 Mannheim <br> Phone: 0621 1819436`"
    },
    {
        "name": "SJ Asian Afro Store Mannheim",
        "city": "Mannheim",
        "zipCode": "68161",
        "coords": "{lat: , lng: }",
        "infos": "`SJ Asian Afro Store Mannheim, S1 11, 68161 Mannheim <br> Phone: 0621 86243212`"
    },
    {
        "name": "Mother Indias Black&White Afro-Kosmetik-Store",
        "city": "Mannheim",
        "zipCode": "68161",
        "coords": "{lat: , lng: }",
        "infos": "`Mother Indias Black&White Afro-Kosmetik-Store, <br> T2 20, 68161 Mannheim <br> Phone: 0621 43769300`"
    },
    {
        "name": "Charles Barber Shop",
        "city": "Mannheim",
        "zipCode": "68161",
        "coords": "{lat: , lng: }",
        "infos": "`Charles Barber Shop, <br> T3 23, 68161 Mannheim <br> Phone: 0621 17298723`"
    },
    {
        "name": "Odeal Beauty Shop",
        "city": "Mannheim",
        "zipCode": "68161",
        "coords": "{lat: , lng: }",
        "infos": "`Odeal Beauty Shop, <br> T3 6, 68161 Mannheim <br> Phone: 0621 18150563`"
    },
    {
        "name": "Afro Markt Jubin/Kotoko",
        "city": "Mannheim",
        "zipCode": "68161",
        "coords": "{lat: , lng: }",
        "infos": "`Afro Markt Jubin/Kotoko, <br> N3 18, 68161 Mannheim <br> Phone: 0621 1225762`"
    },
    {
        "name": "SJ Asian Afro Store Ludwigshafen",
        "city": "Ludwigshafen",
        "zipCode": "67059",
        "coords": "{lat: 49.4831642, lng: 8.4431491}",
        "infos": "`SJ Asian Afro Store Ludwigshafen, <br> Schulstraße 7, 67059 Ludwigshafen am Rheim <br> Phone: 0621 54544276`"
    },
    {
        "name": "Afro Shop Sol Beauty Salon",
        "city": "Ludwigshafen",
        "zipCode": "67061",
        "coords": "{lat: 49.4738767, lng: 8.4423571}",
        "infos": "`Afro Shop Sol Beauty Salon, <br> Rottstraße 95, 67061 Ludwigshafen am Rhein <br> Phone: 01521 7662995`"
    },
    {
        "name": "Style O'Uno",
        "city": "Karlsruhe",
        "zipCode": "76131",
        "coords": "{lat: 49.0096087, lng: 8.4104085}",
        "infos": "`Style O'Uno, <br> Kaiserstraße 16, 76131 Karlsruhe <br> Phone: 0721 6237947`"
    },
    {
        "name": "Chez Bariatou",
        "city": "Karlsruhe",
        "zipCode": "76185",
        "coords": "{lat: 49.01098, lng: 8.3688563}",
        "infos": "`Chez Bariatou, <br> Kaiserallee 113, 76185 Karlsruhe <br> Phone: 0721 7228353`"
    },
    {
        "name": "Afro Shop Karlsruhe / Barber/Braids/Rasta/Dreadlocks/Hair Cut One Love",
        "city": "Karlsruhe",
        "zipCode": "76137",
        "coords": "{lat: 48.9955686, lng: 8.3937766}",
        "infos": "`Afro Shop Karlsruhe / Barber/Braids/Rasta/Dreadlocks/Hair Cut One Love, <br> Karlstraße 125, 76137 Karlsruhe <br> Phone: 0721 46465422`"
    },
    {
        "name": "African Shop Inh. Rita Osayande",
        "city": "Karlsruhe",
        "zipCode": "76133",
        "coords": "{lat: 49.0060668, lng: 8.4062725}",
        "infos": "`African Shop Inh. Rita Osayande, <br> Kreuzstraße 35, 76133 Karlsruhe <br> Phone: 0721 358406`"
    },
    {
        "name": "Harriets Afro Intensive Hair Care",
        "city": "Karlsruhe",
        "zipCode": "76137",
        "coords": "{lat: 49.0013542, lng: 8.3926952}",
        "infos": "`Harriets Afro Intensive Hair Care, <br> Jollystraße 13, 76137 Karlsruhe <br> Phone: 0721 22267`"
    },
    {
        "name": "Paradise Fashion Hair & Beauty",
        "city": "Karlsruhe",
        "zipCode": "76133",
        "coords": "{lat: 49.009361, lng: 8.4007757}",
        "infos": "`Paradise Fashion Hair & Beauty, <br> Ritterstraße 10, 76133 Karlsruhe <br> Phone: 0721 1832808`"
    },
    {
        "name": "Afro Multi Purpose Call Shop",
        "city": "Karlsruhe",
        "zipCode": "76185",
        "coords": "{lat: 49.0118863, lng: 8.3572957}",
        "infos": "`Afro Multi Purpose Call Shop, <br> Hardtstraße 17, 76185 Karlsruhe <br> Phone: 0721 60909422`"
    },
    {
        "name": "INSIDE AFRIKA. Afro shop",
        "city": "Karlsruhe",
        "zipCode": "76131",
        "coords": "{lat: 49.00838, lng: 8.4175044}",
        "infos": "`INSIDE AFRIKA. Afro shop, <br> Gottesauer Straße 3, 76131 Karlsruhe <br> Phone: 0721 59742117`"
    },
    {
        "name": "Afro Sisters Hairstyle & Makeup",
        "city": "Karlsruhe",
        "zipCode": "76133",
        "coords": "{lat: 49.0070811, lng: 8.3949841}",
        "infos": "`Afro Sisters Hairstyle & Makeup, <br> Karlstraße 33, 76133 Karlsruhe <br> Phone: 0721 29057`"
    },
    {
        "name": "Georgette Manekeu",
        "city": "Karlsruhe",
        "zipCode": "76227",
        "coords": "{lat: 48.9998407, lng: 8.4683356}",
        "infos": "`Georgette Manekeu, <br> Bienleinstorstraße 3, 76227 Karlsruhe <br> Phone: 0721 66982118`"
    },
    {
        "name": "Afro-Shop",
        "city": "Stuttgart",
        "zipCode": "70197",
        "coords": "{lat: 48.774343, lng: 9.1562726}",
        "infos": "`Afro-Shop, <br> Schwabstraße 50, 70197 Stuttgart <br> Phone: 01575 4138536`"
    },
    {
        "name": "Nancy's AFRO",
        "city": "Stuttgart",
        "zipCode": "70178",
        "coords": "{lat: 49.0070811, lng: 8.3949841}",
        "infos": "`Nancy's AFRO, <br> Hauptstätter Straße 68, 70178 Stuttgart <br> Phone: 0711 9641202`"
    },

]